{
  "norad_id": 49443,
  "name": "STARLINK-3136",
  "history": [
    {
      "epoch": "2026-03-28T19:25:24.647520Z",
      "apogee_km": 540.7923401709095,
      "perigee_km": 538.729008010635,
      "latitude_deg": -1.9973308974541963e-05,
      "longitude_deg": 5.711955915705148,
      "height_km": 540.5606814289347,
      "semi_major_axis_km": 6917.897674090772,
      "eccentricity": 0.00014913,
      "inclination_deg": 53.2163,
      "raan_deg": 123.2891,
      "arg_perigee_deg": 84.6936,
      "mean_anomaly_deg": 275.4226,
      "mean_motion_rev_day": 15.08834345
    },
    {
      "epoch": "2026-03-29T01:46:57.222624Z",
      "apogee_km": 540.7793259300097,
      "perigee_km": 538.7316297565676,
      "latitude_deg": -3.1057429380116872e-06,
      "longitude_deg": -91.12431802681961,
      "height_km": 540.5614159969948,
      "semi_major_axis_km": 6917.892477843288,
      "eccentricity": 0.000148,
      "inclination_deg": 53.2163,
      "raan_deg": 122.0997,
      "arg_perigee_deg": 84.9855,
      "mean_anomaly_deg": 275.1306,
      "mean_motion_rev_day": 15.08836045
    }
  ]
}